{
    "links": {
        "self": "http://www.neowsapp.com/rest/v1/neo/3160795?api_key=iIulBulltgU6a56xZRHN4H3l9WmuAYTsLGpBGhQ2"
    },
    "id": "3160795",
    "neo_reference_id": "3160795",
    "name": "(2003 SH215)",
    "designation": "2003 SH215",
    "nasa_jpl_url": "http://ssd.jpl.nasa.gov/sbdb.cgi?sstr=3160795",
    "absolute_magnitude_h": 24.9,
    "estimated_diameter": {
        "kilometers": {
            "estimated_diameter_min": 0.0278326768,
            "estimated_diameter_max": 0.0622357573
        },
        "meters": {
            "estimated_diameter_min": 27.8326768072,
            "estimated_diameter_max": 62.2357573367
        },
        "miles": {
            "estimated_diameter_min": 0.0172944182,
            "estimated_diameter_max": 0.0386714948
        },
        "feet": {
            "estimated_diameter_min": 91.3145593761,
            "estimated_diameter_max": 204.1855621004
        }
    },
    "is_potentially_hazardous_asteroid": false,
    "close_approach_data": [
        {
            "close_approach_date": "2003-08-27",
            "close_approach_date_full": "2003-Aug-27 16:16",
            "epoch_date_close_approach": 1062000960000,
            "relative_velocity": {
                "kilometers_per_second": "2.4155639113",
                "kilometers_per_hour": "8696.0300808556",
                "miles_per_hour": "5403.3749132961"
            },
            "miss_distance": {
                "astronomical": "0.2545575456",
                "lunar": "99.0228852384",
                "kilometers": "38081266.614187872",
                "miles": "23662601.8246297536"
            },
            "orbiting_body": "Earth"
        }
    ],
    "orbital_data": {
        "orbit_id": "7",
        "orbit_determination_date": "2017-04-06 09:13:46",
        "first_observation_date": "2003-09-24",
        "last_observation_date": "2003-09-30",
        "data_arc_in_days": 6,
        "observations_used": 23,
        "orbit_uncertainty": "9",
        "minimum_orbit_intersection": ".248381",
        "jupiter_tisserand_invariant": "3.503",
        "epoch_osculation": "2452909.5",
        "eccentricity": ".4391236030846369",
        "semi_major_axis": "2.237581822794819",
        "inclination": "2.032158294153974",
        "ascending_node_longitude": "83.12019098694516",
        "orbital_period": "1222.550520500916",
        "perihelion_distance": "1.255006830572469",
        "perihelion_argument": "255.8141486014902",
        "aphelion_distance": "3.22015681501717",
        "perihelion_time": "2452887.848887197610",
        "mean_anomaly": "6.375524346974879",
        "mean_motion": ".2944663586192717",
        "equinox": "J2000",
        "orbit_class": {
            "orbit_class_type": "AMO",
            "orbit_class_description": "Near-Earth asteroid orbits similar to that of 1221 Amor",
            "orbit_class_range": "1.017 AU < q (perihelion) < 1.3 AU"
        }
    },
    "is_sentry_object": false
}